{"fetched_at": "2026-06-22T06:14:55.139763+00:00", "line1": "1 23613U 95035B   26170.98181670 -.00000250  00000+0  00000+0 0  9999", "line2": "2 23613  13.3760 348.1707 0011579  83.0115 279.2998  1.00280526113283"}
